GLOBALSTAR M001         
1 25162U 98008A   25034.91747416 -.00000069  00000+0  20990-3 0  9992
2 25162  52.0058   1.1156 0001553 342.0211  66.7534 12.38206324227204
GLOBALSTAR M004         
1 25163U 98008B   25034.70876726 -.00000045  00000+0  32729-3 0  9994
2 25163  52.0004 101.3605 0002667   4.7155 146.7455 12.63387395244817
GLOBALSTAR M002         
1 25164U 98008C   25034.86231054 -.00000051  00000+0  50240-3 0  9996
2 25164  51.9976 214.4934 0000322 209.6062 150.4740 11.61507974168575
GLOBALSTAR M014         
1 25306U 98023A   25035.04416640 -.00000065  00000+0  23532-3 0  9997
2 25306  51.9832 140.0619 0001845 117.4971  53.9516 11.65478182175639
GLOBALSTAR M015         
1 25308U 98023C   25034.91985510 -.00000067  00000+0  13585-3 0  9990
2 25308  51.9819 280.2354 0012126 195.5836 178.4656 11.48857688178768
GLOBALSTAR M008         
1 25309U 98023D   25034.98477237 -.00000064  00000+0  25579-3 0  9993
2 25309  51.9937 224.2419 0001542 246.5402 236.9927 12.36062231221687
